{"type": "FeatureCollection", "features": [ {"type": "Feature", "properties": {"norad_id": 32289, "name": "YAOGAN-3", "group": "resource", "lat": -63.600595866393995, "lon": 35.66092422945671, "alt_km": 606.136869356329, "timestamp": "2025-12-18T23:35:48.703739+00:00", "meta": {"OBJECT_NAME": "YAOGAN-3", "OBJECT_ID": "2007-055A", "EPOCH": "2025-12-18T14:12:56.865312", "MEAN_MOTION": 14.89886852, "ECCENTRICITY": 0.0001306, "INCLINATION": 97.8364, "RA_OF_ASC_NODE": 19.1655, "ARG_OF_PERICENTER": 71.213, "MEAN_ANOMALY": 288.9229, "EPHEMERIS_TYPE": 0, "CLASSIFICATION_TYPE": "U", "NORAD_CAT_ID": 32289, "ELEMENT_SET_NO": 999, "REV_AT_EPOCH": 97896, "BSTAR": 0.0001805375, "MEAN_MOTION_DOT": 1.68e-05, "MEAN_MOTION_DDOT": 0}, "tle": {"line1": "1 32289U 07055A   25352.59232483  .00001680  00000+0  18054-3 0  9999", "line2": "2 32289  97.8364  19.1655 0001306  71.2130 288.9229 14.89886852978962"}}, "geometry": {"type": "Point", "coordinates": [35.66092422945671, -63.600595866393995]}}, {"type": "Feature", "properties": {"norad_id": 32376, "name": "COSMO-SKYMED 2", "group": "resource", "lat": 40.56645164172405, "lon": 167.4030929670807, "alt_km": 618.6593971373622, "timestamp": "2025-12-18T23:35:48.703752+00:00", "meta": {"OBJECT_NAME": "COSMO-SKYMED 2", "OBJECT_ID": "2007-059A", "EPOCH": "2025-12-18T15:18:39.826080", "MEAN_MOTION": 14.82149725, "ECCENTRICITY": 0.00013525, "INCLINATION": 97.8803, "RA_OF_ASC_NODE": 173.8729, "ARG_OF_PERICENTER": 82.9305, "MEAN_ANOMALY": 277.2062, "EPHEMERIS_TYPE": 0, "CLASSIFICATION_TYPE": "U", "NORAD_CAT_ID": 32376, "ELEMENT_SET_NO": 999, "REV_AT_EPOCH": 97525, "BSTAR": 6.1615697e-05, "MEAN_MOTION_DOT": 4.38e-06, "MEAN_MOTION_DDOT": 0}, "tle": {"line1": "1 32376U 07059A   25352.63796095  .00000438  00000+0  61616-4 0  9992", "line2": "2 32376  97.8803 173.8729 0001352  82.9305 277.2062 14.82149725975250"}}, "geometry": {"type": "Point", "coordinates": [167.4030929670807, 40.56645164172405]}}, {"type": "Feature", "properties": {"norad_id": 32382, "name": "RADARSAT-2", "group": "resource", "lat": -76.42719870426437, "lon": 138.77873725246707, "alt_km": 799.8820852008221, "timestamp": "2025-12-18T23:35:48.703764+00:00", "meta": {"OBJECT_NAME": "RADARSAT-2", "OBJECT_ID": "2007-061A", "EPOCH": "2025-12-18T15:40:12.487584", "MEAN_MOTION": 14.29983014, "ECCENTRICITY": 0.00010953, "INCLINATION": 98.5792, "RA_OF_ASC_NODE": 357.1574, "ARG_OF_PERICENTER": 83.5738, "MEAN_ANOMALY": 276.5569, "EPHEMERIS_TYPE": 0, "CLASSIFICATION_TYPE": "U", "NORAD_CAT_ID": 32382, "ELEMENT_SET_NO": 999, "REV_AT_EPOCH": 94015, "BSTAR": 7.783406e-06, "MEAN_MOTION_DOT": -2.4e-07, "MEAN_MOTION_DDOT": 0}, "tle": {"line1": "1 32382U 07061A   25352.65292231 -.00000024  00000+0  77834-5 0  9999", "line2": "2 32382  98.5792 357.1574 0001095  83.5738 276.5569 14.29983014940151"}}, "geometry": {"type": "Point", "coordinates": [138.77873725246707, -76.42719870426437]}}, {"type": "Feature", "properties": {"norad_id": 32783, "name": "CARTOSAT-2A", "group": "resource", "lat": 69.63014449489661, "lon": -115.74433683521418, "alt_km": 630.445937866316, "timestamp": "2025-12-18T23:35:48.703775+00:00", "meta": {"OBJECT_NAME": "CARTOSAT-2A", "OBJECT_ID": "2008-021A", "EPOCH": "2025-12-18T14:59:16.732608", "MEAN_MOTION": 14.78946308, "ECCENTRICITY": 0.00114228, "INCLINATION": 97.7928, "RA_OF_ASC_NODE": 42.2645, "ARG_OF_PERICENTER": 345.4119, "MEAN_ANOMALY": 14.6761, "EPHEMERIS_TYPE": 0, "CLASSIFICATION_TYPE": "U", "NORAD_CAT_ID": 32783, "ELEMENT_SET_NO": 999, "REV_AT_EPOCH": 95211, "BSTAR": 5.1588161e-05, "MEAN_MOTION_DOT": 3.3e-06, "MEAN_MOTION_DDOT": 0}, "tle": {"line1": "1 32783U 08021A   25352.62449922  .00000330  00000+0  51588-4 0  9995", "line2": "2 32783  97.7928  42.2645 0011422 345.4119  14.6761 14.78946308952110"}}, "geometry": {"type": "Point", "coordinates": [-115.74433683521418, 69.63014449489661]}}, {"type": "Feature", "properties": {"norad_id": 33320, "name": "HUANJING 1A (HJ-1A)", "group": "resource", "lat": 72.62361940614329, "lon": -44.42824985623768, "alt_km": 604.6084897887358, "timestamp": "2025-12-18T23:35:48.703787+00:00", "meta": {"OBJECT_NAME": "HUANJING 1A (HJ-1A)", "OBJECT_ID": "2008-041A", "EPOCH": "2025-12-18T15:10:10.652736", "MEAN_MOTION": 14.83411278, "ECCENTRICITY": 0.00198163, "INCLINATION": 97.6535, "RA_OF_ASC_NODE": 340.6847, "ARG_OF_PERICENTER": 15.7458, "MEAN_ANOMALY": 344.4368, "EPHEMERIS_TYPE": 0, "CLASSIFICATION_TYPE": "U", "NORAD_CAT_ID": 33320, "ELEMENT_SET_NO": 999, "REV_AT_EPOCH": 93163, "BSTAR": 9.165433e-05, "MEAN_MOTION_DOT": 7.03e-06, "MEAN_MOTION_DDOT": 0}, "tle": {"line1": "1 33320U 08041A   25352.63206774  .00000703  00000+0  91654-4 0  9994", "line2": "2 33320  97.6535 340.6847 0019816  15.7458 344.4368 14.83411278931638"}}, "geometry": {"type": "Point", "coordinates": [-44.42824985623768, 72.62361940614329]}}, {"type": "Feature", "properties": {"norad_id": 33321, "name": "HUANJING 1B (HJ-1B)", "group": "resource", "lat": -75.77741160060138, "lon": 16.677477992137497, "alt_km": 646.1302226773114, "timestamp": "2025-12-18T23:35:48.703798+00:00", "meta": {"OBJECT_NAME": "HUANJING 1B (HJ-1B)", "OBJECT_ID": "2008-041B", "EPOCH": "2025-12-18T14:13:52.220928", "MEAN_MOTION": 14.82834759, "ECCENTRICITY": 0.00380793, "INCLINATION": 97.6395, "RA_OF_ASC_NODE": 344.329, "ARG_OF_PERICENTER": 57.1621, "MEAN_ANOMALY": 303.325, "EPHEMERIS_TYPE": 0, "CLASSIFICATION_TYPE": "U", "NORAD_CAT_ID": 33321, "ELEMENT_SET_NO": 999, "REV_AT_EPOCH": 93164, "BSTAR": 8.7575904e-05, "MEAN_MOTION_DOT": 6.66e-06, "MEAN_MOTION_DDOT": 0}, "tle": {"line1": "1 33321U 08041B   25352.59296552  .00000666  00000+0  87576-4 0  9999", "line2": "2 33321  97.6395 344.3290 0038079  57.1621 303.3250 14.82834759931647"}}, "geometry": {"type": "Point", "coordinates": [16.677477992137497, -75.77741160060138]}}, {"type": "Feature", "properties": {"norad_id": 33331, "name": "GEOEYE 1", "group": "resource", "lat": -42.46543486025901, "lon": -123.32738883026262, "alt_km": 683.0436326730678, "timestamp": "2025-12-18T23:35:48.703809+00:00", "meta": {"OBJECT_NAME": "GEOEYE 1", "OBJECT_ID": "2008-042A", "EPOCH": "2025-12-18T11:06:19.078848", "MEAN_MOTION": 14.647079, "ECCENTRICITY": 0.00027802, "INCLINATION": 98.1248, "RA_OF_ASC_NODE": 63.6715, "ARG_OF_PERICENTER": 260.2007, "MEAN_ANOMALY": 99.8882, "EPHEMERIS_TYPE": 0, "CLASSIFICATION_TYPE": "U", "NORAD_CAT_ID": 33331, "ELEMENT_SET_NO": 999, "REV_AT_EPOCH": 92369, "BSTAR": 9.4803838e-05, "MEAN_MOTION_DOT": 4.57e-06, "MEAN_MOTION_DDOT": 0}, "tle": {"line1": "1 33331U 08042A   25352.46272082  .00000457  00000+0  94804-4 0  9999", "line2": "2 33331  98.1248  63.6715 0002780 260.2007  99.8882 14.64707900923690"}}, "geometry": {"type": "Point", "coordinates": [-123.32738883026262, -42.46543486025901]}}, {"type": "Feature", "properties": {"norad_id": 33396, "name": "THEOS", "group": "resource", "lat": 21.84669804367999, "lon": -125.6380594385408, "alt_km": 824.3631177724883, "timestamp": "2025-12-18T23:35:48.703820+00:00", "meta": {"OBJECT_NAME": "THEOS", "OBJECT_ID": "2008-049A", "EPOCH": "2025-12-18T14:24:05.296320", "MEAN_MOTION": 14.20096769, "ECCENTRICITY": 0.00011866, "INCLINATION": 98.5868, "RA_OF_ASC_NODE": 50.5172, "ARG_OF_PERICENTER": 94.8959, "MEAN_ANOMALY": 265.2354, "EPHEMERIS_TYPE": 0, "CLASSIFICATION_TYPE": "U", "NORAD_CAT_ID": 33396, "ELEMENT_SET_NO": 999, "REV_AT_EPOCH": 89233, "BSTAR": -3.6889888e-05, "MEAN_MOTION_DOT": -1.21e-06, "MEAN_MOTION_DDOT": 0}, "tle": {"line1": "1 33396U 08049A   25352.60006130 -.00000121  00000+0 -36890-4 0  9993", "line2": "2 33396  98.5868  50.5172 0001186  94.8959 265.2354 14.20096769892336"}}, "geometry": {"type": "Point", "coordinates": [-125.6380594385408, 21.84669804367999]}}, {"type": "Feature", "properties": {"norad_id": 33412, "name": "COSMO-SKYMED 3", "group": "resource", "lat": -1.0884063777270414, "lon": -156.37003960922792, "alt_km": 563.6820997016212, "timestamp": "2025-12-18T23:35:48.703831+00:00", "meta": {"OBJECT_NAME": "COSMO-SKYMED 3", "OBJECT_ID": "2008-054A", "EPOCH": "2025-12-18T14:01:48.961344", "MEAN_MOTION": 15.0541031, "ECCENTRICITY": 0.00167137, "INCLINATION": 97.8471, "RA_OF_ASC_NODE": 203.0746, "ARG_OF_PERICENTER": 152.6275, "MEAN_ANOMALY": 207.5835, "EPHEMERIS_TYPE": 0, "CLASSIFICATION_TYPE": "U", "NORAD_CAT_ID": 33412, "ELEMENT_SET_NO": 999, "REV_AT_EPOCH": 92975, "BSTAR": 0.00026468811, "MEAN_MOTION_DOT": 3.743e-05, "MEAN_MOTION_DDOT": 0}, "tle": {"line1": "1 33412U 08054A   25352.58459446  .00003743  00000+0  26469-3 0  9998", "line2": "2 33412  97.8471 203.0746 0016713 152.6275 207.5835 15.05410310929751"}}, "geometry": {"type": "Point", "coordinates": [-156.37003960922792, -1.0884063777270414]}}, {"type": "Feature", "properties": {"norad_id": 33446, "name": "YAOGAN-4", "group": "resource", "lat": -10.935289146215824, "lon": 101.48014932381695, "alt_km": 628.3948103837201, "timestamp": "2025-12-18T23:35:48.703842+00:00", "meta": {"OBJECT_NAME": "YAOGAN-4", "OBJECT_ID": "2008-061A", "EPOCH": "2025-12-18T13:01:09.446880", "MEAN_MOTION": 14.82698896, "ECCENTRICITY": 0.00132274, "INCLINATION": 97.9189, "RA_OF_ASC_NODE": 282.5848, "ARG_OF_PERICENTER": 302.9674, "MEAN_ANOMALY": 57.0267, "EPHEMERIS_TYPE": 0, "CLASSIFICATION_TYPE": "U", "NORAD_CAT_ID": 33446, "ELEMENT_SET_NO": 999, "REV_AT_EPOCH": 91889, "BSTAR": 0.00013597644, "MEAN_MOTION_DOT": 1.045e-05, "MEAN_MOTION_DDOT": 0}, "tle": {"line1": "1 33446U 08061A   25352.54247045  .00001045  00000+0  13598-3 0  9991", "line2": "2 33446  97.9189 282.5848 0013227 302.9674  57.0267 14.82698896918891"}}, "geometry": {"type": "Point", "coordinates": [101.48014932381695, -10.935289146215824]}}]}